[
  {
    "OBJECT_NAME": "STARLINK-31761",
    "OBJECT_ID": "24080Q",
    "EPOCH": "2025-11-11T02:59:33.182304",
    "MEAN_MOTION": 15.27579468,
    "ECCENTRICITY": 0.0001177,
    "INCLINATION": 42.9989,
    "RA_OF_ASC_NODE": 347.967,
    "ARG_OF_PERICENTER": 285.7946,
    "MEAN_ANOMALY": 74.2775,
    "EPHEMERIS_TYPE": 0,
    "CLASSIFICATION_TYPE": "U",
    "NORAD_CAT_ID": 59615,
    "ELEMENT_SET_NO": 999,
    "REV_AT_EPOCH": 8639,
    "BSTAR": 8.650600000000002e-05,
    "MEAN_MOTION_DOT": 2.119e-05,
    "MEAN_MOTION_DDOT": 0.0,
    "TLE_LINE1": "1 59615U 24080Q   25315.12468961  .00002119  00000+0  86506-4 0  9994",
    "TLE_LINE2": "2 59615  42.9989 347.9670 0001177 285.7946  74.2775 15.27579468 86394",
    "COMMENT": "Grouped by shell and plane from TLE"
  },
  {
    "OBJECT_NAME": "STARLINK-31768",
    "OBJECT_ID": "24080R",
    "EPOCH": "2025-11-11T03:47:27.829536",
    "MEAN_MOTION": 15.27575456,
    "ECCENTRICITY": 0.0001207,
    "INCLINATION": 43.0034,
    "RA_OF_ASC_NODE": 347.4138,
    "ARG_OF_PERICENTER": 270.7366,
    "MEAN_ANOMALY": 89.3348,
    "EPHEMERIS_TYPE": 0,
    "CLASSIFICATION_TYPE": "U",
    "NORAD_CAT_ID": 59616,
    "ELEMENT_SET_NO": 999,
    "REV_AT_EPOCH": 8640,
    "BSTAR": 8.1933e-05,
    "MEAN_MOTION_DOT": 1.993e-05,
    "MEAN_MOTION_DDOT": 0.0,
    "TLE_LINE1": "1 59616U 24080R   25315.15796099  .00001993  00000+0  81933-4 0  9992",
    "TLE_LINE2": "2 59616  43.0034 347.4138 0001207 270.7366  89.3348 15.27575456 86404",
    "COMMENT": "Grouped by shell and plane from TLE"
  },
  {
    "OBJECT_NAME": "STARLINK-31769",
    "OBJECT_ID": "24080S",
    "EPOCH": "2025-11-11T04:13:22.082592",
    "MEAN_MOTION": 15.27586467,
    "ECCENTRICITY": 4.29e-05,
    "INCLINATION": 43.0005,
    "RA_OF_ASC_NODE": 347.5428,
    "ARG_OF_PERICENTER": 223.1647,
    "MEAN_ANOMALY": 136.9171,
    "EPHEMERIS_TYPE": 0,
    "CLASSIFICATION_TYPE": "U",
    "NORAD_CAT_ID": 59617,
    "ELEMENT_SET_NO": 999,
    "REV_AT_EPOCH": 8640,
    "BSTAR": 0.0,
    "MEAN_MOTION_DOT": -3.4e-06,
    "MEAN_MOTION_DDOT": 0.0,
    "TLE_LINE1": "1 59617U 24080S   25315.17595003 -.00000340  00000+0 -28435-5 0  9993",
    "TLE_LINE2": "2 59617  43.0005 347.5428 0000429 223.1647 136.9171 15.27586467 86402",
    "COMMENT": "Grouped by shell and plane from TLE"
  },
  {
    "OBJECT_NAME": "STARLINK-31758",
    "OBJECT_ID": "24080W",
    "EPOCH": "2025-11-11T02:56:20.912064",
    "MEAN_MOTION": 15.27573767,
    "ECCENTRICITY": 0.0001248,
    "INCLINATION": 43.0038,
    "RA_OF_ASC_NODE": 343.6793,
    "ARG_OF_PERICENTER": 269.7821,
    "MEAN_ANOMALY": 90.2887,
    "EPHEMERIS_TYPE": 0,
    "CLASSIFICATION_TYPE": "U",
    "NORAD_CAT_ID": 59621,
    "ELEMENT_SET_NO": 999,
    "REV_AT_EPOCH": 8644,
    "BSTAR": 9.3736e-05,
    "MEAN_MOTION_DOT": 2.318e-05,
    "MEAN_MOTION_DDOT": 0.0,
    "TLE_LINE1": "1 59621U 24080W   25315.12246426  .00002318  00000+0  93736-4 0  9995",
    "TLE_LINE2": "2 59621  43.0038 343.6793 0001248 269.7821  90.2887 15.27573767 86444",
    "COMMENT": "Grouped by shell and plane from TLE"
  },
  {
    "OBJECT_NAME": "STARLINK-31774",
    "OBJECT_ID": "24080X",
    "EPOCH": "2025-11-11T03:50:00.669408",
    "MEAN_MOTION": 15.27582175,
    "ECCENTRICITY": 0.0001065,
    "INCLINATION": 43.0009,
    "RA_OF_ASC_NODE": 343.9619,
    "ARG_OF_PERICENTER": 283.2568,
    "MEAN_ANOMALY": 76.8165,
    "EPHEMERIS_TYPE": 0,
    "CLASSIFICATION_TYPE": "U",
    "NORAD_CAT_ID": 59622,
    "ELEMENT_SET_NO": 999,
    "REV_AT_EPOCH": 8644,
    "BSTAR": 0.00022823,
    "MEAN_MOTION_DOT": 6.024e-05,
    "MEAN_MOTION_DDOT": 0.0,
    "TLE_LINE1": "1 59622U 24080X   25315.15972997  .00006024  00000+0  22823-3 0  9994",
    "TLE_LINE2": "2 59622  43.0009 343.9619 0001065 283.2568  76.8165 15.27582175 86441",
    "COMMENT": "Grouped by shell and plane from TLE"
  },
  {
    "OBJECT_NAME": "STARLINK-31763",
    "OBJECT_ID": "24080Y",
    "EPOCH": "2025-11-11T02:44:45.729024",
    "MEAN_MOTION": 15.27574292,
    "ECCENTRICITY": 0.0001156,
    "INCLINATION": 43.0027,
    "RA_OF_ASC_NODE": 347.944,
    "ARG_OF_PERICENTER": 253.9226,
    "MEAN_ANOMALY": 106.1498,
    "EPHEMERIS_TYPE": 0,
    "CLASSIFICATION_TYPE": "U",
    "NORAD_CAT_ID": 59623,
    "ELEMENT_SET_NO": 999,
    "REV_AT_EPOCH": 8639,
    "BSTAR": 0.00010860000000000001,
    "MEAN_MOTION_DOT": 2.727e-05,
    "MEAN_MOTION_DDOT": 0.0,
    "TLE_LINE1": "1 59623U 24080Y   25315.11441816  .00002727  00000+0  10860-3 0  9996",
    "TLE_LINE2": "2 59623  43.0027 347.9440 0001156 253.9226 106.1498 15.27574292 86395",
    "COMMENT": "Grouped by shell and plane from TLE"
  },
  {
    "OBJECT_NAME": "STARLINK-31665",
    "OBJECT_ID": "24084B",
    "EPOCH": "2025-11-11T03:25:23.884320",
    "MEAN_MOTION": 15.2756743,
    "ECCENTRICITY": 4.02e-05,
    "INCLINATION": 43.0017,
    "RA_OF_ASC_NODE": 347.7695,
    "ARG_OF_PERICENTER": 301.4128,
    "MEAN_ANOMALY": 58.6684,
    "EPHEMERIS_TYPE": 0,
    "CLASSIFICATION_TYPE": "U",
    "NORAD_CAT_ID": 59655,
    "ELEMENT_SET_NO": 999,
    "REV_AT_EPOCH": 8628,
    "BSTAR": 0.0,
    "MEAN_MOTION_DOT": -3.04e-06,
    "MEAN_MOTION_DDOT": 0.0,
    "TLE_LINE1": "1 59655U 24084B   25315.14263755 -.00000304  00000+0 -15407-5 0  9997",
    "TLE_LINE2": "2 59655  43.0017 347.7695 0000402 301.4128  58.6684 15.27567430 86284",
    "COMMENT": "Grouped by shell and plane from TLE"
  },
  {
    "OBJECT_NAME": "STARLINK-31881",
    "OBJECT_ID": "24084F",
    "EPOCH": "2025-11-11T02:52:04.028448",
    "MEAN_MOTION": 15.27579,
    "ECCENTRICITY": 0.0001345,
    "INCLINATION": 43.0011,
    "RA_OF_ASC_NODE": 347.5938,
    "ARG_OF_PERICENTER": 280.2221,
    "MEAN_ANOMALY": 79.8479,
    "EPHEMERIS_TYPE": 0,
    "CLASSIFICATION_TYPE": "U",
    "NORAD_CAT_ID": 59659,
    "ELEMENT_SET_NO": 999,
    "REV_AT_EPOCH": 8628,
    "BSTAR": 0.0003946,
    "MEAN_MOTION_DOT": 0.00010612,
    "MEAN_MOTION_DDOT": 0.0,
    "TLE_LINE1": "1 59659U 24084F   25315.11949107  .00010612  00000+0  39460-3 0  9994",
    "TLE_LINE2": "2 59659  43.0011 347.5938 0001345 280.2221  79.8479 15.27579000 86288",
    "COMMENT": "Grouped by shell and plane from TLE"
  },
  {
    "OBJECT_NAME": "STARLINK-31885",
    "OBJECT_ID": "24084G",
    "EPOCH": "2025-11-11T03:36:28.266624",
    "MEAN_MOTION": 15.27586554,
    "ECCENTRICITY": 4.82e-05,
    "INCLINATION": 43.0019,
    "RA_OF_ASC_NODE": 347.8262,
    "ARG_OF_PERICENTER": 263.5096,
    "MEAN_ANOMALY": 96.57,
    "EPHEMERIS_TYPE": 0,
    "CLASSIFICATION_TYPE": "U",
    "NORAD_CAT_ID": 59660,
    "ELEMENT_SET_NO": 999,
    "REV_AT_EPOCH": 8628,
    "BSTAR": 0.00017071,
    "MEAN_MOTION_DOT": 4.44e-05,
    "MEAN_MOTION_DDOT": 0.0,
    "TLE_LINE1": "1 59660U 24084G   25315.15032716  .00004440  00000+0  17071-3 0  9995",
    "TLE_LINE2": "2 59660  43.0019 347.8262 0000482 263.5096  96.5700 15.27586554 86281",
    "COMMENT": "Grouped by shell and plane from TLE"
  },
  {
    "OBJECT_NAME": "STARLINK-31880",
    "OBJECT_ID": "24084H",
    "EPOCH": "2025-11-11T03:16:07.495968",
    "MEAN_MOTION": 15.27582911,
    "ECCENTRICITY": 6.68e-05,
    "INCLINATION": 43.0027,
    "RA_OF_ASC_NODE": 347.7189,
    "ARG_OF_PERICENTER": 265.8718,
    "MEAN_ANOMALY": 94.2057,
    "EPHEMERIS_TYPE": 0,
    "CLASSIFICATION_TYPE": "U",
    "NORAD_CAT_ID": 59661,
    "ELEMENT_SET_NO": 999,
    "REV_AT_EPOCH": 8628,
    "BSTAR": 0.0,
    "MEAN_MOTION_DOT": -8.28e-06,
    "MEAN_MOTION_DDOT": 0.0,
    "TLE_LINE1": "1 59661U 24084H   25315.13619787 -.00000828  00000+0 -20588-4 0  9999",
    "TLE_LINE2": "2 59661  43.0027 347.7189 0000668 265.8718  94.2057 15.27582911 86283",
    "COMMENT": "Grouped by shell and plane from TLE"
  },
  {
    "OBJECT_NAME": "STARLINK-31913",
    "OBJECT_ID": "24084P",
    "EPOCH": "2025-11-11T01:36:25.091712",
    "MEAN_MOTION": 15.27579787,
    "ECCENTRICITY": 0.0001429,
    "INCLINATION": 43.0013,
    "RA_OF_ASC_NODE": 348.0567,
    "ARG_OF_PERICENTER": 256.848,
    "MEAN_ANOMALY": 103.2212,
    "EPHEMERIS_TYPE": 0,
    "CLASSIFICATION_TYPE": "U",
    "NORAD_CAT_ID": 59667,
    "ELEMENT_SET_NO": 999,
    "REV_AT_EPOCH": 8627,
    "BSTAR": 0.00016753999999999998,
    "MEAN_MOTION_DOT": 4.351e-05,
    "MEAN_MOTION_DDOT": 0.0,
    "TLE_LINE1": "1 59667U 24084P   25315.06695708  .00004351  00000+0  16754-3 0  9996",
    "TLE_LINE2": "2 59667  43.0013 348.0567 0001429 256.8480 103.2212 15.27579787 86270",
    "COMMENT": "Grouped by shell and plane from TLE"
  },
  {
    "OBJECT_NAME": "STARLINK-31866",
    "OBJECT_ID": "24084Q",
    "EPOCH": "2025-11-11T02:41:39.265728",
    "MEAN_MOTION": 15.27585727,
    "ECCENTRICITY": 0.000105,
    "INCLINATION": 43.0035,
    "RA_OF_ASC_NODE": 344.0629,
    "ARG_OF_PERICENTER": 266.2287,
    "MEAN_ANOMALY": 93.8445,
    "EPHEMERIS_TYPE": 0,
    "CLASSIFICATION_TYPE": "U",
    "NORAD_CAT_ID": 59668,
    "ELEMENT_SET_NO": 999,
    "REV_AT_EPOCH": 8632,
    "BSTAR": 5.8311000000000005e-05,
    "MEAN_MOTION_DOT": 1.343e-05,
    "MEAN_MOTION_DDOT": 0.0,
    "TLE_LINE1": "1 59668U 24084Q   25315.11226002  .00001343  00000+0  58311-4 0  9994",
    "TLE_LINE2": "2 59668  43.0035 344.0629 0001050 266.2287  93.8445 15.27585727 86329",
    "COMMENT": "Grouped by shell and plane from TLE"
  },
  {
    "OBJECT_NAME": "STARLINK-31860",
    "OBJECT_ID": "24084S",
    "EPOCH": "2025-11-11T03:30:53.702496",
    "MEAN_MOTION": 15.27591244,
    "ECCENTRICITY": 0.0002397,
    "INCLINATION": 43.0074,
    "RA_OF_ASC_NODE": 347.7896,
    "ARG_OF_PERICENTER": 262.7895,
    "MEAN_ANOMALY": 97.2684,
    "EPHEMERIS_TYPE": 0,
    "CLASSIFICATION_TYPE": "U",
    "NORAD_CAT_ID": 59670,
    "ELEMENT_SET_NO": 999,
    "REV_AT_EPOCH": 8626,
    "BSTAR": 0.0003395,
    "MEAN_MOTION_DOT": 9.095e-05,
    "MEAN_MOTION_DDOT": 0.0,
    "TLE_LINE1": "1 59670U 24084S   25315.14645489  .00009095  00000+0  33950-3 0  9997",
    "TLE_LINE2": "2 59670  43.0074 347.7896 0002397 262.7895  97.2684 15.27591244 86269",
    "COMMENT": "Grouped by shell and plane from TLE"
  }
]